{
    "links": {
        "self": "http://www.neowsapp.com/rest/v1/neo/3830847?api_key=iIulBulltgU6a56xZRHN4H3l9WmuAYTsLGpBGhQ2"
    },
    "id": "3830847",
    "neo_reference_id": "3830847",
    "name": "(2018 SC1)",
    "designation": "2018 SC1",
    "nasa_jpl_url": "http://ssd.jpl.nasa.gov/sbdb.cgi?sstr=3830847",
    "absolute_magnitude_h": 27.6,
    "estimated_diameter": {
        "kilometers": {
            "estimated_diameter_min": 0.0080270317,
            "estimated_diameter_max": 0.0179489885
        },
        "meters": {
            "estimated_diameter_min": 8.0270316728,
            "estimated_diameter_max": 17.948988478
        },
        "miles": {
            "estimated_diameter_min": 0.0049877647,
            "estimated_diameter_max": 0.0111529809
        },
        "feet": {
            "estimated_diameter_min": 26.3354065935,
            "estimated_diameter_max": 58.8877593581
        }
    },
    "is_potentially_hazardous_asteroid": false,
    "close_approach_data": [
        {
            "close_approach_date": "2018-09-17",
            "close_approach_date_full": "2018-Sep-17 21:18",
            "epoch_date_close_approach": 1537219080000,
            "relative_velocity": {
                "kilometers_per_second": "7.7481243791",
                "kilometers_per_hour": "27893.2477646581",
                "miles_per_hour": "17331.7794235455"
            },
            "miss_distance": {
                "astronomical": "0.0098250489",
                "lunar": "3.8219440221",
                "kilometers": "1469806.388085843",
                "miles": "913295.3394889134"
            },
            "orbiting_body": "Moon"
        },
        {
            "close_approach_date": "2018-09-18",
            "close_approach_date_full": "2018-Sep-18 03:34",
            "epoch_date_close_approach": 1537241640000,
            "relative_velocity": {
                "kilometers_per_second": "7.9615668154",
                "kilometers_per_hour": "28661.6405354451",
                "miles_per_hour": "17809.2288093714"
            },
            "miss_distance": {
                "astronomical": "0.0103758512",
                "lunar": "4.0362061168",
                "kilometers": "1552205.238956944",
                "miles": "964495.6112320672"
            },
            "orbiting_body": "Earth"
        }
    ],
    "orbital_data": {
        "orbit_id": "4",
        "orbit_determination_date": "2018-12-07 06:53:22",
        "first_observation_date": "2018-09-18",
        "last_observation_date": "2018-10-04",
        "data_arc_in_days": 16,
        "observations_used": 31,
        "orbit_uncertainty": "7",
        "minimum_orbit_intersection": ".00994263",
        "jupiter_tisserand_invariant": "3.366",
        "epoch_osculation": "2459000.5",
        "eccentricity": ".5577870025503849",
        "semi_major_axis": "2.293235355001208",
        "inclination": "5.31645932990546",
        "ascending_node_longitude": "175.5668799080571",
        "orbital_period": "1268.444208643172",
        "perihelion_distance": "1.014098480192516",
        "perihelion_argument": "177.4866941470084",
        "aphelion_distance": "3.5723722298099",
        "perihelion_time": "2458378.256739437755",
        "mean_anomaly": "176.6002574461073",
        "mean_motion": ".28381224617288",
        "equinox": "J2000",
        "orbit_class": {
            "orbit_class_type": "APO",
            "orbit_class_description": "Near-Earth asteroid orbits which cross the Earth’s orbit similar to that of 1862 Apollo",
            "orbit_class_range": "a (semi-major axis) > 1.0 AU; q (perihelion) < 1.017 AU"
        }
    },
    "is_sentry_object": false
}